{"type": "FeatureCollection", "features": [ {"type": "Feature", "properties": {"norad_id": 44476, "name": "INTELSAT 39 (IS-39)", "group": "intelsat", "lat": 0.020367931052636446, "lon": 4.932670018899513, "alt_km": 35789.75125613796, "timestamp": "2025-12-10T14:53:36.790323+00:00", "meta": {"OBJECT_NAME": "INTELSAT 39 (IS-39)", "OBJECT_ID": "2019-049B", "EPOCH": "2025-12-10T00:53:38.582304", "MEAN_MOTION": 1.0027051, "ECCENTRICITY": 9.575e-05, "INCLINATION": 0.0171, "RA_OF_ASC_NODE": 322.3711, "ARG_OF_PERICENTER": 189.1323, "MEAN_ANOMALY": 2.8736, "EPHEMERIS_TYPE": 0, "CLASSIFICATION_TYPE": "U", "NORAD_CAT_ID": 44476, "ELEMENT_SET_NO": 999, "REV_AT_EPOCH": 2323, "BSTAR": 0, "MEAN_MOTION_DOT": 3.7e-07, "MEAN_MOTION_DDOT": 0}, "tle": {"line1": "1 44476U 19049B   25344.03725211  .00000037  00000+0  00000+0 0  9995", "line2": "2 44476   0.0171 322.3711 0000957 189.1323   2.8736  1.00270510 23235"}}, "geometry": {"type": "Point", "coordinates": [4.932670018899513, 0.020367931052636446]}}, {"type": "Feature", "properties": {"norad_id": 46114, "name": "GALAXY 30 (G-30)", "group": "intelsat", "lat": -0.0009740657551612286, "lon": 177.96284186761525, "alt_km": 35784.36460447748, "timestamp": "2025-12-10T14:53:36.790334+00:00", "meta": {"OBJECT_NAME": "GALAXY 30 (G-30)", "OBJECT_ID": "2020-056C", "EPOCH": "2025-12-09T14:41:23.762112", "MEAN_MOTION": 1.0027148, "ECCENTRICITY": 0.00023766, "INCLINATION": 0.0165, "RA_OF_ASC_NODE": 5.2099, "ARG_OF_PERICENTER": 252.81, "MEAN_ANOMALY": 275.9252, "EPHEMERIS_TYPE": 0, "CLASSIFICATION_TYPE": "U", "NORAD_CAT_ID": 46114, "ELEMENT_SET_NO": 999, "REV_AT_EPOCH": 1939, "BSTAR": 0, "MEAN_MOTION_DOT": 3.9e-07, "MEAN_MOTION_DDOT": 0}, "tle": {"line1": "1 46114U 20056C   25343.61208058  .00000039  00000+0  00000+0 0  9996", "line2": "2 46114   0.0165   5.2099 0002376 252.8100 275.9252  1.00271480 19398"}}, "geometry": {"type": "Point", "coordinates": [177.96284186761525, -0.0009740657551612286]}}, {"type": "Feature", "properties": {"norad_id": 54026, "name": "GALAXY 33 (G-33)", "group": "intelsat", "lat": -0.01221748574013965, "lon": 169.97613635176504, "alt_km": 35784.188255854504, "timestamp": "2025-12-10T14:53:36.790344+00:00", "meta": {"OBJECT_NAME": "GALAXY 33 (G-33)", "OBJECT_ID": "2022-128A", "EPOCH": "2025-12-10T07:01:25.431744", "MEAN_MOTION": 1.0027264, "ECCENTRICITY": 0.00021885, "INCLINATION": 0.0111, "RA_OF_ASC_NODE": 311.6947, "ARG_OF_PERICENTER": 298.0873, "MEAN_ANOMALY": 161.8506, "EPHEMERIS_TYPE": 0, "CLASSIFICATION_TYPE": "U", "NORAD_CAT_ID": 54026, "ELEMENT_SET_NO": 999, "REV_AT_EPOCH": 1184, "BSTAR": 0, "MEAN_MOTION_DOT": 8.2e-07, "MEAN_MOTION_DDOT": 0}, "tle": {"line1": "1 54026U 22128A   25344.29265546  .00000082  00000+0  00000+0 0  9997", "line2": "2 54026   0.0111 311.6947 0002188 298.0873 161.8506  1.00272640 11842"}}, "geometry": {"type": "Point", "coordinates": [169.97613635176504, -0.01221748574013965]}}, {"type": "Feature", "properties": {"norad_id": 54027, "name": "GALAXY 34 (G-34)", "group": "intelsat", "lat": -0.015162014400028734, "lon": 174.04839723266628, "alt_km": 35785.05615500591, "timestamp": "2025-12-10T14:53:36.790354+00:00", "meta": {"OBJECT_NAME": "GALAXY 34 (G-34)", "OBJECT_ID": "2022-128B", "EPOCH": "2025-12-10T07:03:25.149312", "MEAN_MOTION": 1.00270688, "ECCENTRICITY": 0.00013561, "INCLINATION": 0.0237, "RA_OF_ASC_NODE": 329.648, "ARG_OF_PERICENTER": 281.1249, "MEAN_ANOMALY": 165.4249, "EPHEMERIS_TYPE": 0, "CLASSIFICATION_TYPE": "U", "NORAD_CAT_ID": 54027, "ELEMENT_SET_NO": 999, "REV_AT_EPOCH": 1201, "BSTAR": 0, "MEAN_MOTION_DOT": 0, "MEAN_MOTION_DDOT": 0}, "tle": {"line1": "1 54027U 22128B   25344.29404108  .00000000  00000+0  00000+0 0  9997", "line2": "2 54027   0.0237 329.6480 0001356 281.1249 165.4249  1.00270688 12013"}}, "geometry": {"type": "Point", "coordinates": [174.04839723266628, -0.015162014400028734]}}, {"type": "Feature", "properties": {"norad_id": 54243, "name": "GALAXY 31 (G-31)", "group": "intelsat", "lat": -0.015810536489787808, "lon": -178.0213477511564, "alt_km": 35785.83992091342, "timestamp": "2025-12-10T14:53:36.790364+00:00", "meta": {"OBJECT_NAME": "GALAXY 31 (G-31)", "OBJECT_ID": "2022-153A", "EPOCH": "2025-12-10T06:33:02.568960", "MEAN_MOTION": 1.0027222, "ECCENTRICITY": 0.00018699, "INCLINATION": 0.0167, "RA_OF_ASC_NODE": 256.6516, "ARG_OF_PERICENTER": 14.6627, "MEAN_ANOMALY": 145.2033, "EPHEMERIS_TYPE": 0, "CLASSIFICATION_TYPE": "U", "NORAD_CAT_ID": 54243, "ELEMENT_SET_NO": 999, "REV_AT_EPOCH": 523, "BSTAR": 0, "MEAN_MOTION_DOT": 1.7e-07, "MEAN_MOTION_DDOT": 0}, "tle": {"line1": "1 54243U 22153A   25344.27294640  .00000017  00000+0  00000+0 0  9999", "line2": "2 54243   0.0167 256.6516 0001869  14.6627 145.2033  1.00272220  5239"}}, "geometry": {"type": "Point", "coordinates": [-178.0213477511564, -0.015810536489787808]}}, {"type": "Feature", "properties": {"norad_id": 54244, "name": "GALAXY 32 (G-32)", "group": "intelsat", "lat": -0.0213723890538454, "lon": -148.04504698932405, "alt_km": 35787.877249694844, "timestamp": "2025-12-10T14:53:36.790375+00:00", "meta": {"OBJECT_NAME": "GALAXY 32 (G-32)", "OBJECT_ID": "2022-153B", "EPOCH": "2025-12-09T12:24:44.332992", "MEAN_MOTION": 1.00270521, "ECCENTRICITY": 0.00027242, "INCLINATION": 0.0086, "RA_OF_ASC_NODE": 338.62, "ARG_OF_PERICENTER": 330.4778, "MEAN_ANOMALY": 224.5904, "EPHEMERIS_TYPE": 0, "CLASSIFICATION_TYPE": "U", "NORAD_CAT_ID": 54244, "ELEMENT_SET_NO": 999, "REV_AT_EPOCH": 1124, "BSTAR": 0, "MEAN_MOTION_DOT": -1.72e-06, "MEAN_MOTION_DDOT": 0}, "tle": {"line1": "1 54244U 22153B   25343.51717978 -.00000172  00000+0  00000+0 0  9993", "line2": "2 54244   0.0086 338.6200 0002724 330.4778 224.5904  1.00270521 11246"}}, "geometry": {"type": "Point", "coordinates": [-148.04504698932405, -0.0213723890538454]}}, {"type": "Feature", "properties": {"norad_id": 54741, "name": "GALAXY 35 (G-35)", "group": "intelsat", "lat": 0.007105130347241306, "lon": -150.12142192536058, "alt_km": 35780.11741959831, "timestamp": "2025-12-10T14:53:36.790385+00:00", "meta": {"OBJECT_NAME": "GALAXY 35 (G-35)", "OBJECT_ID": "2022-170A", "EPOCH": "2025-12-10T04:23:38.620896", "MEAN_MOTION": 1.00271022, "ECCENTRICITY": 0.00026129, "INCLINATION": 0.031, "RA_OF_ASC_NODE": 99.3994, "ARG_OF_PERICENTER": 166.4389, "MEAN_ANOMALY": 146.146, "EPHEMERIS_TYPE": 0, "CLASSIFICATION_TYPE": "U", "NORAD_CAT_ID": 54741, "ELEMENT_SET_NO": 999, "REV_AT_EPOCH": 1099, "BSTAR": 0, "MEAN_MOTION_DOT": -1.59e-06, "MEAN_MOTION_DDOT": 0}, "tle": {"line1": "1 54741U 22170A   25344.18308589 -.00000159  00000+0  00000+0 0  9997", "line2": "2 54741   0.0310  99.3994 0002612 166.4389 146.1460  1.00271022 10994"}}, "geometry": {"type": "Point", "coordinates": [-150.12142192536058, 0.007105130347241306]}}, {"type": "Feature", "properties": {"norad_id": 54742, "name": "GALAXY 36 (G-36)", "group": "intelsat", "lat": -0.009544370537442162, "lon": -146.0201619224136, "alt_km": 35785.875989295004, "timestamp": "2025-12-10T14:53:36.790396+00:00", "meta": {"OBJECT_NAME": "GALAXY 36 (G-36)", "OBJECT_ID": "2022-170B", "EPOCH": "2025-12-10T04:23:38.620896", "MEAN_MOTION": 1.00270678, "ECCENTRICITY": 5.412e-05, "INCLINATION": 0.0119, "RA_OF_ASC_NODE": 34.2059, "ARG_OF_PERICENTER": 256.1943, "MEAN_ANOMALY": 125.6671, "EPHEMERIS_TYPE": 0, "CLASSIFICATION_TYPE": "U", "NORAD_CAT_ID": 54742, "ELEMENT_SET_NO": 999, "REV_AT_EPOCH": 1087, "BSTAR": 0, "MEAN_MOTION_DOT": -1.82e-06, "MEAN_MOTION_DDOT": 0}, "tle": {"line1": "1 54742U 22170B   25344.18308589 -.00000182  00000+0  00000+0 0  9994", "line2": "2 54742   0.0119  34.2059 0000541 256.1943 125.6671  1.00270678 10873"}}, "geometry": {"type": "Point", "coordinates": [-146.0201619224136, -0.009544370537442162]}}, {"type": "Feature", "properties": {"norad_id": 57493, "name": "GALAXY 37 (G-37)", "group": "intelsat", "lat": -0.0020565629744569527, "lon": 175.9717276999119, "alt_km": 35785.84951587116, "timestamp": "2025-12-10T14:53:36.790406+00:00", "meta": {"OBJECT_NAME": "GALAXY 37 (G-37)", "OBJECT_ID": "2023-112A", "EPOCH": "2025-12-10T07:04:24.678048", "MEAN_MOTION": 1.0027199, "ECCENTRICITY": 0.00022953, "INCLINATION": 0.0101, "RA_OF_ASC_NODE": 359.5489, "ARG_OF_PERICENTER": 265.5725, "MEAN_ANOMALY": 153.2581, "EPHEMERIS_TYPE": 0, "CLASSIFICATION_TYPE": "U", "NORAD_CAT_ID": 57493, "ELEMENT_SET_NO": 999, "REV_AT_EPOCH": 864, "BSTAR": 0, "MEAN_MOTION_DOT": 5.1e-07, "MEAN_MOTION_DDOT": 0}, "tle": {"line1": "1 57493U 23112A   25344.29473007  .00000051  00000+0  00000+0 0  9991", "line2": "2 57493   0.0101 359.5489 0002295 265.5725 153.2581  1.00271990  8647"}}, "geometry": {"type": "Point", "coordinates": [175.9717276999119, -0.0020565629744569527]}}]}